<?xml version="1.0" encoding="UTF-8"?>
<ndm xmlns:xsi="http://www.w3.org/2001/XMLSchema-instance" xsi:noNamespaceSchemaLocation="https://sanaregistry.org/r/ndmxml_unqualified/ndmxml-2.0.0-master-2.0.xsd">
<omm id="CCSDS_OMM_VERS" version="2.0">
<header><CREATION_DATE/><ORIGINATOR/></header><body><segment><metadata><OBJECT_NAME>ONEWEB-0139</OBJECT_NAME><OBJECT_ID>2020-100AD</OBJECT_ID><CENTER_NAME>EARTH</CENTER_NAME><REF_FRAME>TEME</REF_FRAME><TIME_SYSTEM>UTC</TIME_SYSTEM><MEAN_ELEMENT_THEORY>SGP4</MEAN_ELEMENT_THEORY></metadata><data><meanElements><EPOCH>2024-05-24T22:53:29.857056</EPOCH><MEAN_MOTION>13.12443073</MEAN_MOTION><ECCENTRICITY>.0002068</ECCENTRICITY><INCLINATION>87.8929</INCLINATION><RA_OF_ASC_NODE>140.6163</RA_OF_ASC_NODE><ARG_OF_PERICENTER>88.2904</ARG_OF_PERICENTER><MEAN_ANOMALY>271.8461</MEAN_ANOMALY></meanElements><tleParameters><EPHEMERIS_TYPE>0</EPHEMERIS_TYPE><CLASSIFICATION_TYPE>U</CLASSIFICATION_TYPE><NORAD_CAT_ID>47285</NORAD_CAT_ID><ELEMENT_SET_NO>999</ELEMENT_SET_NO><REV_AT_EPOCH>16592</REV_AT_EPOCH><BSTAR>-.11723E-2</BSTAR><MEAN_MOTION_DOT>-.409E-5</MEAN_MOTION_DOT><MEAN_MOTION_DDOT>0</MEAN_MOTION_DDOT></tleParameters></data></segment></body></omm>
<omm id="CCSDS_OMM_VERS" version="2.0">
<header><CREATION_DATE/><ORIGINATOR/></header><body><segment><metadata><OBJECT_NAME>ONEWEB-0140</OBJECT_NAME><OBJECT_ID>2020-100AE</OBJECT_ID><CENTER_NAME>EARTH</CENTER_NAME><REF_FRAME>TEME</REF_FRAME><TIME_SYSTEM>UTC</TIME_SYSTEM><MEAN_ELEMENT_THEORY>SGP4</MEAN_ELEMENT_THEORY></metadata><data><meanElements><EPOCH>2024-05-24T21:35:44.584512</EPOCH><MEAN_MOTION>13.12445261</MEAN_MOTION><ECCENTRICITY>.0002207</ECCENTRICITY><INCLINATION>87.8924</INCLINATION><RA_OF_ASC_NODE>140.6307</RA_OF_ASC_NODE><ARG_OF_PERICENTER>87.4054</ARG_OF_PERICENTER><MEAN_ANOMALY>272.7327</MEAN_ANOMALY></meanElements><tleParameters><EPHEMERIS_TYPE>0</EPHEMERIS_TYPE><CLASSIFICATION_TYPE>U</CLASSIFICATION_TYPE><NORAD_CAT_ID>47286</NORAD_CAT_ID><ELEMENT_SET_NO>999</ELEMENT_SET_NO><REV_AT_EPOCH>16588</REV_AT_EPOCH><BSTAR>.11443E-2</BSTAR><MEAN_MOTION_DOT>.424E-5</MEAN_MOTION_DOT><MEAN_MOTION_DDOT>0</MEAN_MOTION_DDOT></tleParameters></data></segment></body></omm>
<omm id="CCSDS_OMM_VERS" version="2.0">
<header><CREATION_DATE/><ORIGINATOR/></header><body><segment><metadata><OBJECT_NAME>ONEWEB-0141</OBJECT_NAME><OBJECT_ID>2020-100AF</OBJECT_ID><CENTER_NAME>EARTH</CENTER_NAME><REF_FRAME>TEME</REF_FRAME><TIME_SYSTEM>UTC</TIME_SYSTEM><MEAN_ELEMENT_THEORY>SGP4</MEAN_ELEMENT_THEORY></metadata><data><meanElements><EPOCH>2024-05-25T00:06:07.464384</EPOCH><MEAN_MOTION>13.10828835</MEAN_MOTION><ECCENTRICITY>.0001852</ECCENTRICITY><INCLINATION>87.8921</INCLINATION><RA_OF_ASC_NODE>140.6134</RA_OF_ASC_NODE><ARG_OF_PERICENTER>87.1931</ARG_OF_PERICENTER><MEAN_ANOMALY>272.9408</MEAN_ANOMALY></meanElements><tleParameters><EPHEMERIS_TYPE>0</EPHEMERIS_TYPE><CLASSIFICATION_TYPE>U</CLASSIFICATION_TYPE><NORAD_CAT_ID>47287</NORAD_CAT_ID><ELEMENT_SET_NO>999</ELEMENT_SET_NO><REV_AT_EPOCH>16588</REV_AT_EPOCH><BSTAR>-.12378E-2</BSTAR><MEAN_MOTION_DOT>-.422E-5</MEAN_MOTION_DOT><MEAN_MOTION_DDOT>0</MEAN_MOTION_DDOT></tleParameters></data></segment></body></omm>
<omm id="CCSDS_OMM_VERS" version="2.0">
<header><CREATION_DATE/><ORIGINATOR/></header><body><segment><metadata><OBJECT_NAME>ONEWEB-0142</OBJECT_NAME><OBJECT_ID>2020-100AG</OBJECT_ID><CENTER_NAME>EARTH</CENTER_NAME><REF_FRAME>TEME</REF_FRAME><TIME_SYSTEM>UTC</TIME_SYSTEM><MEAN_ELEMENT_THEORY>SGP4</MEAN_ELEMENT_THEORY></metadata><data><meanElements><EPOCH>2024-05-25T01:34:43.994208</EPOCH><MEAN_MOTION>13.12443981</MEAN_MOTION><ECCENTRICITY>.0002098</ECCENTRICITY><INCLINATION>87.8927</INCLINATION><RA_OF_ASC_NODE>140.5897</RA_OF_ASC_NODE><ARG_OF_PERICENTER>80.5539</ARG_OF_PERICENTER><MEAN_ANOMALY>279.5827</MEAN_ANOMALY></meanElements><tleParameters><EPHEMERIS_TYPE>0</EPHEMERIS_TYPE><CLASSIFICATION_TYPE>U</CLASSIFICATION_TYPE><NORAD_CAT_ID>47288</NORAD_CAT_ID><ELEMENT_SET_NO>999</ELEMENT_SET_NO><REV_AT_EPOCH>16588</REV_AT_EPOCH><BSTAR>.51226E-3</BSTAR><MEAN_MOTION_DOT>.197E-5</MEAN_MOTION_DOT><MEAN_MOTION_DDOT>0</MEAN_MOTION_DDOT></tleParameters></data></segment></body></omm>
<omm id="CCSDS_OMM_VERS" version="2.0">
<header><CREATION_DATE/><ORIGINATOR/></header><body><segment><metadata><OBJECT_NAME>ONEWEB-0143</OBJECT_NAME><OBJECT_ID>2020-100AH</OBJECT_ID><CENTER_NAME>EARTH</CENTER_NAME><REF_FRAME>TEME</REF_FRAME><TIME_SYSTEM>UTC</TIME_SYSTEM><MEAN_ELEMENT_THEORY>SGP4</MEAN_ELEMENT_THEORY></metadata><data><meanElements><EPOCH>2024-05-24T22:37:29.176320</EPOCH><MEAN_MOTION>13.12441990</MEAN_MOTION><ECCENTRICITY>.0001951</ECCENTRICITY><INCLINATION>87.8926</INCLINATION><RA_OF_ASC_NODE>140.6346</RA_OF_ASC_NODE><ARG_OF_PERICENTER>88.7265</ARG_OF_PERICENTER><MEAN_ANOMALY>271.4087</MEAN_ANOMALY></meanElements><tleParameters><EPHEMERIS_TYPE>0</EPHEMERIS_TYPE><CLASSIFICATION_TYPE>U</CLASSIFICATION_TYPE><NORAD_CAT_ID>47289</NORAD_CAT_ID><ELEMENT_SET_NO>999</ELEMENT_SET_NO><REV_AT_EPOCH>16584</REV_AT_EPOCH><BSTAR>-.16452E-2</BSTAR><MEAN_MOTION_DOT>-.579E-5</MEAN_MOTION_DOT><MEAN_MOTION_DDOT>0</MEAN_MOTION_DDOT></tleParameters></data></segment></body></omm>
<omm id="CCSDS_OMM_VERS" version="2.0">
<header><CREATION_DATE/><ORIGINATOR/></header><body><segment><metadata><OBJECT_NAME>ONEWEB-0144</OBJECT_NAME><OBJECT_ID>2020-100AJ</OBJECT_ID><CENTER_NAME>EARTH</CENTER_NAME><REF_FRAME>TEME</REF_FRAME><TIME_SYSTEM>UTC</TIME_SYSTEM><MEAN_ELEMENT_THEORY>SGP4</MEAN_ELEMENT_THEORY></metadata><data><meanElements><EPOCH>2024-05-24T23:48:23.870880</EPOCH><MEAN_MOTION>13.12444398</MEAN_MOTION><ECCENTRICITY>.0002272</ECCENTRICITY><INCLINATION>87.8926</INCLINATION><RA_OF_ASC_NODE>140.6083</RA_OF_ASC_NODE><ARG_OF_PERICENTER>77.7108</ARG_OF_PERICENTER><MEAN_ANOMALY>282.4275</MEAN_ANOMALY></meanElements><tleParameters><EPHEMERIS_TYPE>0</EPHEMERIS_TYPE><CLASSIFICATION_TYPE>U</CLASSIFICATION_TYPE><NORAD_CAT_ID>47290</NORAD_CAT_ID><ELEMENT_SET_NO>999</ELEMENT_SET_NO><REV_AT_EPOCH>16577</REV_AT_EPOCH><BSTAR>.1731E-3</BSTAR><MEAN_MOTION_DOT>.75E-6</MEAN_MOTION_DOT><MEAN_MOTION_DDOT>0</MEAN_MOTION_DDOT></tleParameters></data></segment></body></omm>
<omm id="CCSDS_OMM_VERS" version="2.0">
<header><CREATION_DATE/><ORIGINATOR/></header><body><segment><metadata><OBJECT_NAME>ONEWEB-0145</OBJECT_NAME><OBJECT_ID>2020-100AK</OBJECT_ID><CENTER_NAME>EARTH</CENTER_NAME><REF_FRAME>TEME</REF_FRAME><TIME_SYSTEM>UTC</TIME_SYSTEM><MEAN_ELEMENT_THEORY>SGP4</MEAN_ELEMENT_THEORY></metadata><data><meanElements><EPOCH>2024-05-24T23:07:13.179072</EPOCH><MEAN_MOTION>13.12446533</MEAN_MOTION><ECCENTRICITY>.0002128</ECCENTRICITY><INCLINATION>87.8927</INCLINATION><RA_OF_ASC_NODE>140.6381</RA_OF_ASC_NODE><ARG_OF_PERICENTER>84.6421</ARG_OF_PERICENTER><MEAN_ANOMALY>275.4950</MEAN_ANOMALY></meanElements><tleParameters><EPHEMERIS_TYPE>0</EPHEMERIS_TYPE><CLASSIFICATION_TYPE>U</CLASSIFICATION_TYPE><NORAD_CAT_ID>47291</NORAD_CAT_ID><ELEMENT_SET_NO>999</ELEMENT_SET_NO><REV_AT_EPOCH>16596</REV_AT_EPOCH><BSTAR>.69276E-3</BSTAR><MEAN_MOTION_DOT>.262E-5</MEAN_MOTION_DOT><MEAN_MOTION_DDOT>0</MEAN_MOTION_DDOT></tleParameters></data></segment></body></omm>
<omm id="CCSDS_OMM_VERS" version="2.0">
<header><CREATION_DATE/><ORIGINATOR/></header><body><segment><metadata><OBJECT_NAME>ONEWEB-0146</OBJECT_NAME><OBJECT_ID>2020-100AL</OBJECT_ID><CENTER_NAME>EARTH</CENTER_NAME><REF_FRAME>TEME</REF_FRAME><TIME_SYSTEM>UTC</TIME_SYSTEM><MEAN_ELEMENT_THEORY>SGP4</MEAN_ELEMENT_THEORY></metadata><data><meanElements><EPOCH>2024-05-25T00:50:08.335680</EPOCH><MEAN_MOTION>13.12441438</MEAN_MOTION><ECCENTRICITY>.0001881</ECCENTRICITY><INCLINATION>87.8928</INCLINATION><RA_OF_ASC_NODE>140.6065</RA_OF_ASC_NODE><ARG_OF_PERICENTER>99.9184</ARG_OF_PERICENTER><MEAN_ANOMALY>260.2157</MEAN_ANOMALY></meanElements><tleParameters><EPHEMERIS_TYPE>0</EPHEMERIS_TYPE><CLASSIFICATION_TYPE>U</CLASSIFICATION_TYPE><NORAD_CAT_ID>47292</NORAD_CAT_ID><ELEMENT_SET_NO>999</ELEMENT_SET_NO><REV_AT_EPOCH>16588</REV_AT_EPOCH><BSTAR>-.18594E-4</BSTAR><MEAN_MOTION_DOT>.6E-7</MEAN_MOTION_DOT><MEAN_MOTION_DDOT>0</MEAN_MOTION_DDOT></tleParameters></data></segment></body></omm>
<omm id="CCSDS_OMM_VERS" version="2.0">
<header><CREATION_DATE/><ORIGINATOR/></header><body><segment><metadata><OBJECT_NAME>ONEWEB-0147</OBJECT_NAME><OBJECT_ID>2020-100AM</OBJECT_ID><CENTER_NAME>EARTH</CENTER_NAME><REF_FRAME>TEME</REF_FRAME><TIME_SYSTEM>UTC</TIME_SYSTEM><MEAN_ELEMENT_THEORY>SGP4</MEAN_ELEMENT_THEORY></metadata><data><meanElements><EPOCH>2024-05-24T22:12:18.709920</EPOCH><MEAN_MOTION>13.12444684</MEAN_MOTION><ECCENTRICITY>.0002378</ECCENTRICITY><INCLINATION>87.8925</INCLINATION><RA_OF_ASC_NODE>140.6228</RA_OF_ASC_NODE><ARG_OF_PERICENTER>83.9968</ARG_OF_PERICENTER><MEAN_ANOMALY>276.1431</MEAN_ANOMALY></meanElements><tleParameters><EPHEMERIS_TYPE>0</EPHEMERIS_TYPE><CLASSIFICATION_TYPE>U</CLASSIFICATION_TYPE><NORAD_CAT_ID>47293</NORAD_CAT_ID><ELEMENT_SET_NO>999</ELEMENT_SET_NO><REV_AT_EPOCH>16576</REV_AT_EPOCH><BSTAR>-.3328E-2</BSTAR><MEAN_MOTION_DOT>-.1184E-4</MEAN_MOTION_DOT><MEAN_MOTION_DDOT>0</MEAN_MOTION_DDOT></tleParameters></data></segment></body></omm>

</ndm>
